ONEWEB-0208             
1 48243U 21031AK  25101.72433983  .00000029  00000+0  43280-4 0  9997
2 48243  87.9093  15.5092 0001649  78.1422 281.9892 13.14506121191627
ONEWEB-0200             
1 48244U 21031AL  25101.76399888  .00000011  00000+0 -47619-5 0  9990
2 48244  87.9094  15.4945 0001724  78.7878 281.3445 13.14501101191553
ONEWEB-0217             
1 48245U 21031AM  25101.70373092 -.00000142  00000+0 -41648-3 0  9994
2 48245  87.9095  15.4908 0001556  75.0084 285.1217 13.14504174191491
ONEWEB-0211             
1 48767U 21045A   25101.90653405  .00000014  00000+0  22229-5 0  9991
2 48767  87.9108 345.1038 0001640  68.6910 291.4396 13.16075401187718
ONEWEB-0223             
1 48768U 21045B   25101.94820886 -.00000026  00000+0 -10321-3 0  9998
2 48768  87.9105 345.1211 0001711  63.8845 296.2461 13.15549154187707
ONEWEB-0230             
1 48769U 21045C   25101.91967613 -.00000012  00000+0 -66514-4 0  9997
2 48769  87.9093 345.1811 0001923  80.8016 279.3332 13.15546634189075
ONEWEB-0237             
1 48770U 21045D   25101.90859653  .00000058  00000+0  11976-3 0  9991
2 48770  87.9115 345.1451 0001771  68.1747 291.9571 13.15546929187680
ONEWEB-0235             
1 48771U 21045E   25101.95929871  .00000117  00000+0  27810-3 0  9997
2 48771  87.9103 345.1208 0001860  61.2872 298.8445 13.15549815187683
ONEWEB-0242             
1 48772U 21045F   25101.95296233  .00000057  00000+0  11764-3 0  9991
2 48772  87.9105 345.1080 0001890  73.9579 286.1760 13.15549348187727
ONEWEB-0241             
1 48773U 21045G   25101.94029180 -.00000062  00000+0 -19878-3 0  9998
2 48773  87.9093 345.1801 0001424  67.9946 292.1336 13.15545199187635
ONEWEB-0243             
1 48774U 21045H   25101.97197196  .00000185  00000+0  45768-3 0  9996
2 48774  87.9115 345.1409 0001884  64.9906 295.1420 13.15550365187669
ONEWEB-0222             
1 48775U 21045J   25101.95533586  .00000042  00000+0  78321-4 0  9996
2 48775  87.9099 345.1148 0001634  75.2899 284.8412 13.15549825187700
ONEWEB-0244             
1 48776U 21045K   25101.90542595  .00000066  00000+0  14040-3 0  9995
2 48776  87.9103 345.1038 0001916  74.9574 285.1768 13.15550431188269
ONEWEB-0247             
1 48777U 21045L   25101.90225591  .00000156  00000+0  37935-3 0  9998
2 48777  87.9112 345.1686 0002107  51.2214 308.9104 13.15550642187701
ONEWEB-0245             
1 48778U 21045M   25101.97355497  .00000263  00000+0  66442-3 0  9999
2 48778  87.9105 345.1250 0001560  77.1559 282.9745 13.15550414187688
ONEWEB-0229             
1 48779U 21045N   25101.66457846  .00000193  00000+0  47930-3 0  9990
2 48779  87.9106 345.1838 0001887  75.6811 284.4529 13.15546846187678
ONEWEB-0228             
1 48780U 21045P   25101.92617754 -.00000110  00000+0 -32735-3 0  9995
2 48780  87.9103 345.1083 0001778  74.6145 285.5182 13.15549156187626
ONEWEB-0232             
1 48781U 21045Q   25101.90067439  .00000139  00000+0  33405-3 0  9997
2 48781  87.9098 345.1131 0001776  78.3017 281.8312 13.15550381187942
ONEWEB-0231             
1 48782U 21045R   25101.95454326  .00000106  00000+0  24868-3 0  9995
2 48782  87.9091 345.1613 0001793  70.2338 289.8986 13.15550472187640
ONEWEB-0234             
1 48783U 21045S   25101.89828698  .00000199  00000+0  49587-3 0  9993
2 48783  87.9102 345.1240 0001371 124.3063 235.8197 13.15550503187772
ONEWEB-0238             
1 48784U 21045T   25101.92839885 -.00000061  00000+0 -19643-3 0  9998
2 48784  87.9103 345.1344 0001717  84.5793 275.5533 13.15549409187677
ONEWEB-0240             
1 48785U 21045U   25101.93790499 -.00000105  00000+0 -31423-3 0  9996
2 48785  87.9104 345.0987 0001467  70.2914 289.8374 13.15550636187709
ONEWEB-0246             
1 48786U 21045V   25101.93235892 -.00000070  00000+0 -22022-3 0  9994
2 48786  87.9106 345.1088 0001877  75.6550 284.4789 13.15549902187575
ONEWEB-0210             
1 48787U 21045W   25101.90700853  .00000068  00000+0  14666-3 0  9996
2 48787  87.9106 345.1151 0002183  62.1927 297.9424 13.15546628187619
ONEWEB-0214             
1 48788U 21045X   25101.91651738 -.00000063  00000+0 -20145-3 0  9991
2 48788  87.9106 345.1022 0002172  70.6529 289.4836 13.15550371188701
ONEWEB-0221             
1 48789U 21045Y   25101.92284809 -.00000021  00000+0 -89481-4 0  9997
2 48789  87.9109 345.1270 0001678  74.7789 285.3527 13.15551016187677
ONEWEB-0213             
1 48790U 21045Z   25101.91176352 -.00000005  00000+0 -46323-4 0  9991
2 48790  87.9108 345.1378 0001809  69.8099 290.3226 13.15549507187733
ONEWEB-0212             
1 48791U 21045AA  25101.96484730  .00000193  00000+0  47835-3 0  9993
2 48791  87.9104 345.1154 0001731  80.7633 279.3693 13.15549332187733
ONEWEB-0227             
1 48792U 21045AB  25101.73587280  .00000228  00000+0  57088-3 0  9993
2 48792  87.9107 345.1739 0001700  76.0454 284.0865 13.15550992187650
ONEWEB-0226             
1 48793U 21045AC  25101.95771102  .00000098  00000+0  22585-3 0  9995
2 48793  87.9104 345.1343 0001936  68.8202 291.3135 13.15551121187656
ONEWEB-0224             
1 48794U 21045AD  25101.92126734 -.00000101  00000+0 -30324-3 0  9995
2 48794  87.9114 345.1750 0000799  68.5856 291.5360 13.15549655187570
ONEWEB-0233             
1 48795U 21045AE  25101.92588533 -.00000160  00000+0 -45889-3 0  9992
2 48795  87.9110 345.1834 0001626  67.8492 292.2811 13.15549823187596
ONEWEB-0190             
1 48796U 21045AF  25101.68517239 -.00000005  00000+0 -48086-4 0  9992
2 48796  87.9112 345.1946 0001853  52.2985 307.8313 13.15551055187635
ONEWEB-0236             
1 48797U 21045AG  25101.93077501 -.00000431  00000+0 -11784-2 0  9990
2 48797  87.9113 345.1508 0001643  76.6411 283.4903 13.15548777187554
ONEWEB-0248             
1 48798U 21045AH  25101.94345186  .00000008  00000+0 -14002-4 0  9996
2 48798  87.9103 345.1129 0001338  58.6131 301.5130 13.15550155187718
ONEWEB-0225             
1 48799U 21045AJ  25101.96564262  .00000141  00000+0  34103-3 0  9997
2 48799  87.9108 345.1349 0001774  57.5220 302.6082 13.15547273187725
ONEWEB-0215             
1 48800U 21045AK  25101.93552702 -.00000075  00000+0 -23275-3 0  9999
2 48800  87.9102 345.0977 0001535  54.9443 305.1831 13.15549476187593
ONEWEB-0216             
1 48801U 21045AL  25101.94503736 -.00000006  00000+0 -49986-4 0  9996
2 48801  87.9102 345.1405 0002001  77.8708 282.2646 13.15550310187608
ONEWEB-0239             
1 48802U 21045AM  25101.94978267 -.00000003  00000+0 -42682-4 0  9995
2 48802  87.9112 345.1417 0001274  53.3266 306.7981 13.15550397187645
ONEWEB-0249             
1 48967U 21060A   25101.84534619  .00000018  00000+0  13016-4 0  9995
2 48967  87.9042 314.7671 0001672  87.4131 272.7191 13.16595360182857
ONEWEB-0250             
1 48968U 21060B   25101.85176540 -.00000024  00000+0 -85218-4 0  9994
2 48968  87.9039 313.9334 0000742  59.1295 300.9914 13.25708905183067
ONEWEB-0252             
1 48970U 21060D   25101.87702288  .00000063  00000+0  13060-3 0  9999
2 48970  87.9041 314.7541 0002098  84.1674 275.9696 13.16594095182900
ONEWEB-0253             
1 48971U 21060E   25101.86593568  .00000061  00000+0  12624-3 0  9991
2 48971  87.9036 314.7622 0001698  77.7725 282.3596 13.16594442182834
ONEWEB-0254             
1 48972U 21060F   25101.87543331  .00000282  00000+0  70431-3 0  9991
2 48972  87.9039 314.7433 0001395  74.4658 285.6626 13.16596577182832
ONEWEB-0255             
1 48973U 21060G   25101.83743797 -.00000037  00000+0 -12949-3 0  9996
2 48973  87.9041 314.7842 0001538  76.6924 283.4379 13.16594812182908
ONEWEB-0256             
1 48974U 21060H   25101.86354630  .00000005  00000+0 -20170-4 0  9994
2 48974  87.9042 314.7915 0001910  85.9830 274.1519 13.16595945182871
ONEWEB-0257             
1 48975U 21060J   25101.82002223  .00000133  00000+0  31541-3 0  9993
2 48975  87.9042 314.7628 0001750  77.6382 282.4945 13.16595777182828
ONEWEB-0258             
1 48976U 21060K   25101.82160087  .00000081  00000+0  17810-3 0  9992
2 48976  87.9041 314.7901 0001653  86.3951 273.7369 13.16595126182835
ONEWEB-0259             
1 48977U 21060L   25101.81527735  .00000150  00000+0  35899-3 0  9993
2 48977  87.9042 314.7756 0001581  82.9281 277.2030 13.16598081182863
ONEWEB-0260             
1 48978U 21060M   25101.88256286  .00000209  00000+0  51406-3 0  9998
2 48978  87.9034 314.7915 0002273  81.1006 279.0382 13.16594628182859
ONEWEB-0261             
1 48979U 21060N   25101.85248388 -.00000040  00000+0 -13710-3 0  9991
2 48979  87.9036 314.7982 0001843  70.3017 289.8312 13.16593697182903
ONEWEB-0262             
1 48980U 21060P   25101.83268297 -.00000029  00000+0 -10819-3 0  9996
2 48980  87.9044 314.7592 0001422  85.2030 274.9264 13.16594988182864
ONEWEB-0263             
1 48981U 21060Q   25101.86433799 -.00000012  00000+0 -63695-4 0  9994
2 48981  87.9042 314.7782 0001559  71.0558 289.0742 13.16591667182839
ONEWEB-0264             
1 48982U 21060R   25101.82554011  .00000091  00000+0  20420-3 0  9995
2 48982  87.9037 314.7943 0001705  81.6357 278.4967 13.16591361182832
ONEWEB-0266             
1 48984U 21060T   25101.84693632  .00000008  00000+0 -11640-4 0  9996
2 48984  87.9040 314.7605 0001586  89.7992 270.3320 13.16595581182825
ONEWEB-0267             
1 48985U 21060U   25101.85801633 -.00000083  00000+0 -24983-3 0  9997
2 48985  87.9040 314.7604 0001747  75.8800 284.2525 13.16594579182836
ONEWEB-0268             
1 48986U 21060V   25101.59836033  .00000030  00000+0  44730-4 0  9994
2 48986  87.9042 314.8190 0001861  83.4057 276.7285 13.16595345183063
ONEWEB-0269             
1 48987U 21060W   25101.88335547  .00000113  00000+0  26113-3 0  9997
2 48987  87.9043 314.7968 0001822  87.4052 272.7288 13.16594347182871
ONEWEB-0270             
1 48988U 21060X   25101.59676888  .00000070  00000+0  14851-3 0  9990
2 48988  87.9042 314.8239 0001573  71.3967 288.7335 13.16597188182879
